{
    "type": "FeatureCollection",
    "features": [
        {
            "id": "0",
            "type": "Feature",
            "properties": {
                "school": "Long Middle School",
                "school_id": 447.0,
                "syear": 2026,
                "level": "middle",
                "source_note": "Approximate proximity-clustered enclosing polygon derived from parcel-level SLPS Focus lookup assignments, not an official boundary."
            },
            "geometry": {
                "type": "MultiPolygon",
                "coordinates": [
                    [
                        [
                            [-90.30567150388083, 38.637665907780395],
                            [-90.30409044150163, 38.64419753398131],
                            [-90.30338514360317, 38.64417780325821],
                            [-90.30284353155025, 38.64329654354547],
                            [-90.30302669576271, 38.641050298187245],
                            [-90.30426628416282, 38.63584265119245],
                            [-90.29936889181344, 38.63203500228165],
                            [-90.27083465072326, 38.629246715374414],
                            [-90.26394355800228, 38.63296655555184],
                            [-90.26579503255023, 38.63744661883718],
                            [-90.26382271463822, 38.648733278387056],
                            [-90.26269734404613, 38.64907606094684],
                            [-90.24986531266084, 38.6434264449647],
                            [-90.2503564824796, 38.641973773027054],
                            [-90.24838992185947, 38.63586903356709],
                            [-90.24085214470834, 38.63429813886391],
                            [-90.23318129170957, 38.63574457761096],
                            [-90.2304730127882, 38.63731134899507],
                            [-90.22030674369817, 38.63430122848249],
                            [-90.19819110932282, 38.629695298050564],
                            [-90.19004153170506, 38.63044223855852],
                            [-90.18242881822542, 38.62979469068142],
                            [-90.1886735195587, 38.62588286687326],
                            [-90.18866810132829, 38.62395989984682],
                            [-90.18712427197477, 38.619507189402746],
                            [-90.18775234622025, 38.61276105111984],
                            [-90.18817570723871, 38.61183779862745],
                            [-90.19362937743422, 38.607304867668354],
                            [-90.19837711587144, 38.600159786065426],
                            [-90.19882347528926, 38.597327175741476],
                            [-90.2031040082393, 38.59185477164418],
                            [-90.21068847973882, 38.58646198840915],
                            [-90.21951683736287, 38.584561810359375],
                            [-90.2222748242163, 38.58145184636483],
                            [-90.22546926147997, 38.579413323240665],
                            [-90.22835353638382, 38.57436728163148],
                            [-90.23400702284087, 38.56913985445036],
                            [-90.24004871965809, 38.56567394317953],
                            [-90.2424269062233, 38.566912796877105],
                            [-90.24650166279257, 38.570848782304196],
                            [-90.25050880980012, 38.572963967335866],
                            [-90.25825583356881, 38.570472262862765],
                            [-90.25791067053571, 38.56543569878928],
                            [-90.2599813684291, 38.562781215394224],
                            [-90.2601883292596, 38.556244766338764],
                            [-90.26359478679643, 38.55331388026386],
                            [-90.26876637165309, 38.55353976449787],
                            [-90.27107547054317, 38.54797774889923],
                            [-90.27052046858223, 38.545794944302656],
                            [-90.27131434514679, 38.54516656655433],
                            [-90.27681082747094, 38.55026806229474],
                            [-90.28593730415656, 38.55472751391476],
                            [-90.29695679033514, 38.562287054612206],
                            [-90.30392289563942, 38.57140078027492],
                            [-90.30997208529647, 38.57523425531221],
                            [-90.31357660104358, 38.57871891221193],
                            [-90.31978872031806, 38.59173242724595],
                            [-90.31738988597336, 38.60263886312576],
                            [-90.3127451966973, 38.614313996602085],
                            [-90.30860399515431, 38.63041884716076],
                            [-90.30567150388083, 38.637665907780395]
                        ]
                    ],
                    [
                        [
                            [-90.19568709374097, 38.74817604272421],
                            [-90.19299123379811, 38.75097316203602],
                            [-90.19601244858741, 38.747631444778726],
                            [-90.20783088534111, 38.73738756982805],
                            [-90.2141305058619, 38.7274527997128],
                            [-90.22157709276483, 38.728166348840325],
                            [-90.22401654994663, 38.72672283069378],
                            [-90.20648541727732, 38.738651872530504],
                            [-90.19568709374097, 38.74817604272421]
                        ]
                    ]
                ]
            }
        },
        {
            "id": "1",
            "type": "Feature",
            "properties": {
                "school": "Lyon @ Blow Elementary School",
                "school_id": 394.0,
                "syear": 2026,
                "level": "middle",
                "source_note": "Approximate proximity-clustered enclosing polygon derived from parcel-level SLPS Focus lookup assignments, not an official boundary."
            },
            "geometry": {
                "type": "Polygon",
                "coordinates": [
                    [
                        [-90.25785994724293, 38.572319035428485],
                        [-90.25440390854887, 38.574822862094926],
                        [-90.24806940901985, 38.57147663826701],
                        [-90.24506481804698, 38.57225645187007],
                        [-90.24397667681177, 38.57168197503406],
                        [-90.2424962707121, 38.569633005869534],
                        [-90.24107871068217, 38.569426012464206],
                        [-90.24190058721892, 38.56781644061544],
                        [-90.24011839344355, 38.56554547540719],
                        [-90.24261505781976, 38.56191992042111],
                        [-90.24209584048147, 38.55971232259536],
                        [-90.24649183299975, 38.5539176526999],
                        [-90.24822988894701, 38.555078694510335],
                        [-90.25154425837282, 38.55088248155003],
                        [-90.2539992786539, 38.5500410583865],
                        [-90.25425066833493, 38.54906357748743],
                        [-90.25279312991485, 38.54396163639462],
                        [-90.25429904051042, 38.54118255160686],
                        [-90.25755455684337, 38.53724351431097],
                        [-90.26042221777931, 38.53669013599873],
                        [-90.26265219934166, 38.53471914500013],
                        [-90.26512748752856, 38.53410591506516],
                        [-90.26933202711328, 38.537222665442876],
                        [-90.27060001187756, 38.53920835350334],
                        [-90.27082853499951, 38.54238408427072],
                        [-90.2716783178679, 38.54445021840758],
                        [-90.27069451638691, 38.546755958882606],
                        [-90.27029708959398, 38.55117055238738],
                        [-90.26925851321089, 38.55301757669578],
                        [-90.26516654893275, 38.55422118599572],
                        [-90.26246373384217, 38.554306201864996],
                        [-90.26142225031265, 38.55766651296108],
                        [-90.25820591693582, 38.557924183793766],
                        [-90.25684583429134, 38.559128476209764],
                        [-90.25716529374625, 38.561300930302174],
                        [-90.25898910473076, 38.56225868819088],
                        [-90.25771674469728, 38.56382973167648],
                        [-90.25820351190706, 38.56575456977955],
                        [-90.26011689801422, 38.56637690358603],
                        [-90.25785994724293, 38.572319035428485]
                    ]
                ]
            }
        },
        {
            "id": "2",
            "type": "Feature",
            "properties": {
                "school": "Pamoja @ Cole Elementary School",
                "school_id": 377.0,
                "syear": 2026,
                "level": "middle",
                "source_note": "Approximate proximity-clustered enclosing polygon derived from parcel-level SLPS Focus lookup assignments, not an official boundary."
            },
            "geometry": {
                "type": "Polygon",
                "coordinates": [
                    [
                        [-90.23231466676287, 38.64441656226621],
                        [-90.23127023973628, 38.64493358483858],
                        [-90.23007999749406, 38.64441106465255],
                        [-90.23055858352325, 38.64413340512083],
                        [-90.22999495075489, 38.64383876199091],
                        [-90.23023772815145, 38.64350478436845],
                        [-90.23056227848595, 38.64408782597986],
                        [-90.23108002551731, 38.64387456079108],
                        [-90.23078592412973, 38.64423320999008],
                        [-90.23119459367886, 38.64392485582509],
                        [-90.23231466676287, 38.64441656226621]
                    ]
                ]
            }
        },
        {
            "id": "3",
            "type": "Feature",
            "properties": {
                "school": "Yeatman Liddell Middle School",
                "school_id": 449.0,
                "syear": 2026,
                "level": "middle",
                "source_note": "Approximate proximity-clustered enclosing polygon derived from parcel-level SLPS Focus lookup assignments, not an official boundary."
            },
            "geometry": {
                "type": "MultiPolygon",
                "coordinates": [
                    [
                        [
                            [-90.18502319056968, 38.764956019877],
                            [-90.1841877728212, 38.774362902635474],
                            [-90.17536578502329, 38.773306762944955],
                            [-90.18340431869076, 38.753805586013705],
                            [-90.18597556158186, 38.7505422796031],
                            [-90.18819333006921, 38.74871764235458],
                            [-90.2039992248626, 38.739130410653445],
                            [-90.21077560644743, 38.73365397556914],
                            [-90.21663722501116, 38.721736716429355],
                            [-90.21658727926702, 38.71797273558366],
                            [-90.21581173138105, 38.70821707305322],
                            [-90.21023331508123, 38.698941799578456],
                            [-90.20764751349594, 38.69562771250589],
                            [-90.19781043777601, 38.68632822249833],
                            [-90.19126465017905, 38.67835640843157],
                            [-90.18888569317889, 38.67367315865127],
                            [-90.18542514915426, 38.66325025122787],
                            [-90.181034762644, 38.6425807883979],
                            [-90.1804188300322, 38.63659413126066],
                            [-90.18175155998412, 38.633638272289325],
                            [-90.18788394634697, 38.6278730765938],
                            [-90.18917186952037, 38.62785614682924],
                            [-90.22819648969467, 38.63650100342761],
                            [-90.23202390010375, 38.63818076528857],
                            [-90.23100758245656, 38.645038556288064],
                            [-90.24762612390258, 38.64831980890709],
                            [-90.24973137007211, 38.6436193937274],
                            [-90.26771458265527, 38.64446379100378],
                            [-90.28554605406983, 38.64784755421966],
                            [-90.30280833148886, 38.649703573213145],
                            [-90.30183911171206, 38.6555512877895],
                            [-90.28639005153019, 38.675123473435626],
                            [-90.27230785627786, 38.682687862737275],
                            [-90.26982323727968, 38.68908633748448],
                            [-90.26796598725362, 38.69837114285055],
                            [-90.25166642463398, 38.71874102279279],
                            [-90.23271314072761, 38.72628327597432],
                            [-90.21798180131988, 38.73357598041782],
                            [-90.20772967455498, 38.74039085638033],
                            [-90.20247662676614, 38.74479748626379],
                            [-90.19209328773573, 38.75523304355391],
                            [-90.18502319056968, 38.764956019877]
                        ]
                    ],
                    [
                        [
                            [-90.2548176761428, 38.63115716560995],
                            [-90.25601582233023, 38.63126580509483],
                            [-90.25518087672201, 38.63120915530334],
                            [-90.25487694410063, 38.631165650060005],
                            [-90.2548176761428, 38.63115716560995]
                        ]
                    ],
                    [
                        [
                            [-90.23832469755921, 38.5783742827966],
                            [-90.23381473516612, 38.57824954705975],
                            [-90.2328112061217, 38.577594289338684],
                            [-90.22900712388285, 38.57731745817762],
                            [-90.22883991977604, 38.57807920495979],
                            [-90.22902561473683, 38.57723321021261],
                            [-90.23229181728014, 38.57729146100695],
                            [-90.23832469755921, 38.5783742827966]
                        ]
                    ]
                ]
            }
        }
    ]
}
