{"type": "FeatureCollection", "features": [{"id": "0", "type": "Feature", "properties": {"school": "Adams Elementary School", "school_id": 372.0, "syear": 2026, "level": "elementary", "source_note": "Approximate proximity-clustered enclosing polygon derived from parcel-level SLPS Focus lookup assignments, not an official boundary."}, "geometry": {"type": "Polygon", "coordinates": [[[-90.26382646413857, 38.64871093672455], [-90.26269734404613, 38.64907606094684], [-90.24986531266084, 38.6434264449647], [-90.25078180265976, 38.641789306610846], [-90.2579430217484, 38.64338128735438], [-90.2596941337156, 38.64193848858369], [-90.25854762874124, 38.64029709160935], [-90.25173341453436, 38.638880973929396], [-90.25092877741429, 38.63639735690987], [-90.24583725504881, 38.63533912063893], [-90.24669147584318, 38.6327849326596], [-90.24378138054043, 38.63258730094876], [-90.24179730077277, 38.63449618563027], [-90.23788507219666, 38.633676367326885], [-90.23713536603611, 38.63256701122377], [-90.23852622856641, 38.63130737690836], [-90.2412296391044, 38.62498635725167], [-90.24232341222356, 38.62521324533311], [-90.24451995648171, 38.62140355311223], [-90.24577605166414, 38.613045015581], [-90.25674844361893, 38.614072282942956], [-90.25690502472142, 38.616820136004556], [-90.26237587565599, 38.61852226496987], [-90.26309150900107, 38.61810580631218], [-90.2663962512722, 38.61816791401644], [-90.26494511028723, 38.62135144883821], [-90.26526081353498, 38.6230864109334], [-90.26394355800228, 38.63296655555184], [-90.26206517593488, 38.635714523695256], [-90.26266865472773, 38.637637688221105], [-90.26579503255023, 38.63744661883718], [-90.26567146741047, 38.6383201606533], [-90.26470740277392, 38.641606397548394], [-90.26090784851615, 38.64131396367355], [-90.26037021478876, 38.6420810068193], [-90.26098986679956, 38.644012455980054], [-90.26292832416138, 38.644014842569995], [-90.2642678741489, 38.646080604315856], [-90.26382646413857, 38.64871093672455]]]}}, {"id": "1", "type": "Feature", "properties": {"school": "Ashland Elementary School", "school_id": 373.0, "syear": 2026, "level": "elementary", "source_note": "Approximate proximity-clustered enclosing polygon derived from parcel-level SLPS Focus lookup assignments, not an official boundary."}, "geometry": {"type": "Polygon", "coordinates": [[[-90.24729902513698, 38.68273183098182], [-90.2450132289289, 38.6818252285637], [-90.2434134017581, 38.6822726646723], [-90.24349199638229, 38.68294919448984], [-90.24254076317655, 38.683905208126596], [-90.24125669880678, 38.68334212820712], [-90.2364977180185, 38.68419639214625], [-90.23874055300669, 38.68351034085827], [-90.23816989538291, 38.682421155449134], [-90.23712952941263, 38.68196625075811], [-90.2366702949937, 38.68018239061059], [-90.23224277821423, 38.678243509982764], [-90.23033644872179, 38.678595705107], [-90.23037932662851, 38.68160693250116], [-90.22946193607055, 38.68168274935522], [-90.22877514714355, 38.68013910080008], [-90.2222584943074, 38.672464594325994], [-90.22411378540282, 38.669205209198346], [-90.22507646131963, 38.669623860109915], [-90.22699674583036, 38.6692631781244], [-90.22839980780421, 38.66728835699442], [-90.22773479137459, 38.66580904094567], [-90.21701696873997, 38.66109864766139], [-90.21868614424118, 38.65960310650302], [-90.22006193263724, 38.65685020774164], [-90.2227765066923, 38.657826926849694], [-90.22435174656243, 38.65730068423238], [-90.23003191673892, 38.659787627471324], [-90.23227137350702, 38.659554570364016], [-90.2339945107195, 38.66023549478683], [-90.23125785237406, 38.6638243331973], [-90.23073390934957, 38.667438834679224], [-90.23920821049646, 38.67114819878346], [-90.23958471783364, 38.67268379563883], [-90.24331921541163, 38.67423041468469], [-90.24144836033992, 38.676826891916605], [-90.24209109070806, 38.678304210125205], [-90.24688365319541, 38.68003306528069], [-90.24660253872098, 38.680441619595015], [-90.24777937495512, 38.682042048519264], [-90.24729902513698, 38.68273183098182]]]}}, {"id": "2", "type": "Feature", "properties": {"school": "Bryan Hill Elementary School", "school_id": 374.0, "syear": 2026, "level": "elementary", "source_note": "Approximate proximity-clustered enclosing polygon derived from parcel-level SLPS Focus lookup assignments, not an official boundary."}, "geometry": {"type": "Polygon", "coordinates": [[[-90.22150689475684, 38.69391531878446], [-90.2233398710175, 38.6972897823497], [-90.21332593509216, 38.70242246028995], [-90.20669734399277, 38.69428205440952], [-90.20593840980524, 38.692814979343105], [-90.20733106183548, 38.69091716632298], [-90.20412259648178, 38.69105313554774], [-90.19781043777601, 38.68632822249833], [-90.1946587617438, 38.68200958414214], [-90.19397876589434, 38.67984780984619], [-90.19199363907354, 38.67927225393691], [-90.19126465017905, 38.67835640843157], [-90.18888569317889, 38.67367315865127], [-90.18851332939731, 38.67095047416433], [-90.18914406796733, 38.669534625428795], [-90.18722308995379, 38.66748843051425], [-90.188372336744, 38.665408833209085], [-90.18593354007535, 38.66471851128934], [-90.18463279369155, 38.658179821909336], [-90.18672438589621, 38.65699924807533], [-90.1876402144577, 38.65570489208215], [-90.18589292389792, 38.651469005617976], [-90.18693281010883, 38.651147447044785], [-90.19010587040388, 38.65577043728838], [-90.19170260991001, 38.65409421853032], [-90.19056363649628, 38.65238651295114], [-90.19363844649016, 38.65113843148436], [-90.19400861778199, 38.649834665968385], [-90.1964443370121, 38.649967994369526], [-90.19907061534343, 38.64915387083491], [-90.20033497772779, 38.65167487975853], [-90.20211353247899, 38.65306983521689], [-90.20259827356182, 38.65552205035421], [-90.20431597126458, 38.656546491503086], [-90.21161000957528, 38.65749178678778], [-90.21303454501881, 38.65967503910332], [-90.21230687545507, 38.66069141900266], [-90.21310248486255, 38.66259212939511], [-90.21491097635945, 38.6633843165916], [-90.21547577522524, 38.66543023300223], [-90.22191482065078, 38.66824862022745], [-90.21907710033412, 38.67204649800201], [-90.2196093147524, 38.67524603786142], [-90.22132439127166, 38.67653123968332], [-90.21793360153237, 38.678333218605786], [-90.21733456876393, 38.67765633366238], [-90.21506646128648, 38.67746066634141], [-90.21215618170714, 38.67898488043689], [-90.21181312380082, 38.680972567001206], [-90.21427294700867, 38.68236863929202], [-90.21283780338239, 38.68489550434265], [-90.2144001145683, 38.686513523369136], [-90.21728307123809, 38.68673888204343], [-90.218056863507, 38.687551385719864], [-90.22023161161182, 38.68589197115457], [-90.21922417317874, 38.685113401277725], [-90.22495531622658, 38.68364316020705], [-90.22060847958087, 38.686183215438376], [-90.21985655966074, 38.6884309925142], [-90.21897887800385, 38.688519491123095], [-90.21814745619017, 38.69042537271381], [-90.2164020952886, 38.691809862809016], [-90.21962129633071, 38.69500601883545], [-90.22150689475684, 38.69391531878446]]]}}, {"id": "3", "type": "Feature", "properties": {"school": "Buder Elementary School", "school_id": 375.0, "syear": 2026, "level": "elementary", "source_note": "Approximate proximity-clustered enclosing polygon derived from parcel-level SLPS Focus lookup assignments, not an official boundary."}, "geometry": {"type": "MultiPolygon", "coordinates": [[[[-90.31854410362013, 38.58966693392398], [-90.31608719250337, 38.59104166717045], [-90.31230562223446, 38.590655248883394], [-90.30960881058483, 38.5912375196185], [-90.30707556021716, 38.59097768299106], [-90.3043702814603, 38.59252399989645], [-90.29378491654435, 38.591115298798414], [-90.29152904390605, 38.59303057284565], [-90.28870442324545, 38.59419071308039], [-90.287960641318, 38.59877402563435], [-90.28335285960839, 38.59793162955754], [-90.27405889586262, 38.59734231812568], [-90.26872714035777, 38.59637251905775], [-90.26825271206104, 38.595368885660854], [-90.27009723042639, 38.59390616403933], [-90.27308609818463, 38.5929102720554], [-90.27650334593565, 38.58690273531679], [-90.27681782957914, 38.58513501417006], [-90.2748309845028, 38.583291364665435], [-90.2692147313808, 38.58382016349073], [-90.26570072948998, 38.58263265207318], [-90.27102842199484, 38.57846563735832], [-90.27694858072917, 38.57613987641369], [-90.27809817794697, 38.57416880380938], [-90.27826480535975, 38.570835460524926], [-90.27994624697729, 38.56852543182455], [-90.2807271380338, 38.56605687558177], [-90.28380585978667, 38.564256240932956], [-90.28094307865273, 38.56751865206754], [-90.28337438615758, 38.56787477118799], [-90.28742629801665, 38.5653941196122], [-90.28760684672058, 38.56315488740512], [-90.28632807417966, 38.56184859154946], [-90.29095295037276, 38.56201736443734], [-90.29253718034506, 38.560048555082425], [-90.29197669074371, 38.559587366094604], [-90.29259396892003, 38.55894344864354], [-90.29695679033514, 38.562287054612206], [-90.29702389356615, 38.56443702787618], [-90.30101025316965, 38.567655046590325], [-90.301940465861, 38.56962160087788], [-90.30473646810856, 38.57223807410865], [-90.30358980332396, 38.573822925822356], [-90.30598313684216, 38.57482917405601], [-90.30751263198121, 38.5768861150002], [-90.30997208529647, 38.57523425531221], [-90.31029577876859, 38.57555834401058], [-90.3081006256094, 38.57760484888534], [-90.309509723723, 38.58003011342167], [-90.30953229007011, 38.58243969851036], [-90.31026888247845, 38.58302217192489], [-90.31281957580082, 38.581889694787925], [-90.31278339098526, 38.57886833694424], [-90.31357660104358, 38.57871891221193], [-90.31598879533114, 38.58416807363203], [-90.31423931793026, 38.5853460017203], [-90.31276912011286, 38.587355172359544], [-90.3131347346631, 38.587759432018785], [-90.31754523228523, 38.587482792384336], [-90.31854410362013, 38.58966693392398]]], [[[-90.26520276146073, 38.61896939457955], [-90.26425357776543, 38.62030901877089], [-90.26048604313553, 38.620178377675956], [-90.25835720633178, 38.621592900713594], [-90.25723258904857, 38.621543775056104], [-90.26052965214527, 38.61985527896097], [-90.25943991878356, 38.61914764932227], [-90.26021237130371, 38.618486978719595], [-90.26520276146073, 38.61896939457955]]]]}}, {"id": "4", "type": "Feature", "properties": {"school": "Columbia Elementary School", "school_id": 378.0, "syear": 2026, "level": "elementary", "source_note": "Approximate proximity-clustered enclosing polygon derived from parcel-level SLPS Focus lookup assignments, not an official boundary."}, "geometry": {"type": "MultiPolygon", "coordinates": [[[[-90.23832469755921, 38.5783742827966], [-90.23381473516612, 38.57824954705975], [-90.2328112061217, 38.577594289338684], [-90.22900712388285, 38.57731745817762], [-90.22883991977604, 38.57807920495979], [-90.22902561473683, 38.57723321021261], [-90.23229181728014, 38.57729146100695], [-90.23832469755921, 38.5783742827966]]], [[[-90.23835256767148, 38.65411065149171], [-90.234096376245, 38.660091253121394], [-90.2313275239587, 38.660103726850394], [-90.2261159460399, 38.65782368451813], [-90.2236623080451, 38.657956279226326], [-90.22290589595437, 38.65766146137174], [-90.22268499391646, 38.655648896758414], [-90.22066569573636, 38.65469116433781], [-90.21524578594081, 38.663027715872985], [-90.2146621525398, 38.66308660338293], [-90.21174836122238, 38.661810722869156], [-90.21270693227963, 38.660469213275995], [-90.21196620360419, 38.65877374746396], [-90.20904602628123, 38.656921803669945], [-90.20349402529342, 38.656088307737896], [-90.20357235002987, 38.65448795683216], [-90.2021594062091, 38.65293733613368], [-90.20042570685217, 38.652567222249424], [-90.1993899214729, 38.64905531133235], [-90.2005442827605, 38.64869996395072], [-90.20201502006536, 38.64901167331374], [-90.20406462644836, 38.648043762164946], [-90.20547624128005, 38.64364950750496], [-90.2079977923157, 38.64417889295879], [-90.20575183099767, 38.65007899421655], [-90.20726246304758, 38.6516087847071], [-90.20970141797932, 38.65212350502116], [-90.21175567999968, 38.65152234563223], [-90.21309865388113, 38.64708327579491], [-90.21291295623351, 38.64223547295965], [-90.21466635719919, 38.63670790292527], [-90.21349349156979, 38.636427430316466], [-90.21309260273185, 38.63578644357936], [-90.214330403014, 38.63333893049527], [-90.22819648969467, 38.63650100342761], [-90.23202390010375, 38.63818076528857], [-90.22953399781967, 38.63927591675852], [-90.22722207503828, 38.63935446790785], [-90.22788472381738, 38.64106767825842], [-90.22905661427788, 38.6413130038627], [-90.22916975771234, 38.64237309014439], [-90.23100758245656, 38.645038556288064], [-90.23086632059784, 38.647873771711915], [-90.2300816240319, 38.64896222344919], [-90.23086616753753, 38.65079203427414], [-90.23835256767148, 38.65411065149171]]]]}}, {"id": "5", "type": "Feature", "properties": {"school": "Froebel Elementary School", "school_id": 380.0, "syear": 2026, "level": "elementary", "source_note": "Approximate proximity-clustered enclosing polygon derived from parcel-level SLPS Focus lookup assignments, not an official boundary."}, "geometry": {"type": "Polygon", "coordinates": [[[-90.24287127283587, 38.59556828036294], [-90.24259133236058, 38.598110249637095], [-90.23976871159482, 38.597755056178976], [-90.23834188503017, 38.59849342080216], [-90.2373052665308, 38.59836365785897], [-90.23517042839441, 38.59993388616264], [-90.23017026912179, 38.59930514572643], [-90.23108673082477, 38.594884103937865], [-90.22938198399983, 38.591851235634714], [-90.23081780036186, 38.58485959138559], [-90.24315506226169, 38.586410767921315], [-90.24297065400418, 38.58730385144372], [-90.24395962091148, 38.58833906980416], [-90.24531361728141, 38.58769625641252], [-90.24577137526884, 38.586499101412656], [-90.24813207523762, 38.58674627737558], [-90.24854184440161, 38.587260767273], [-90.24786417527818, 38.59168559110002], [-90.24451814167777, 38.592074413095254], [-90.24357523644814, 38.592481052613756], [-90.24306100299715, 38.593649778382606], [-90.24184675905128, 38.59396081731929], [-90.24159025406964, 38.594616927067335], [-90.24287127283587, 38.59556828036294]]]}}, {"id": "6", "type": "Feature", "properties": {"school": "Hamilton Elementary School", "school_id": 382.0, "syear": 2026, "level": "elementary", "source_note": "Approximate proximity-clustered enclosing polygon derived from parcel-level SLPS Focus lookup assignments, not an official boundary."}, "geometry": {"type": "MultiPolygon", "coordinates": [[[[-90.2904414728044, 38.66944531380664], [-90.28711418277618, 38.66691263244742], [-90.28210812380897, 38.67294002715526], [-90.28173327338789, 38.672738221061785], [-90.2823147269374, 38.67194235772569], [-90.28689160955228, 38.66679255079744], [-90.28651652306937, 38.666590183744475], [-90.28143269842886, 38.66577821540972], [-90.27486512897462, 38.66170167149194], [-90.27310839032333, 38.66129089188428], [-90.27035427986856, 38.66196212615235], [-90.2677729967722, 38.66493222458629], [-90.26371753996045, 38.663339139383076], [-90.26026070978718, 38.66373408615762], [-90.25817039422064, 38.66281666435294], [-90.2560707345915, 38.66069227668575], [-90.25638966422235, 38.658811899741075], [-90.2599351942982, 38.658144918045274], [-90.25985624591188, 38.65629457967392], [-90.2584769302456, 38.65525987575959], [-90.26021233303901, 38.65420235133105], [-90.26117335594849, 38.65250504826071], [-90.26359318726787, 38.65221327420596], [-90.26484918590397, 38.64471273971389], [-90.26771458265527, 38.64446379100378], [-90.27436289062707, 38.645700376215764], [-90.27872916309092, 38.64739373729904], [-90.30280833148886, 38.649703573213145], [-90.30183911171206, 38.6555512877895], [-90.29739436539164, 38.66027441706004], [-90.295534487983, 38.6611622388898], [-90.29595336091609, 38.663365022378684], [-90.2904414728044, 38.66944531380664]]], [[[-90.26401183048958, 38.674353036481556], [-90.26355751343417, 38.675004027510056], [-90.26236585209492, 38.67447837086207], [-90.2628235978703, 38.67382699677794], [-90.26401183048958, 38.674353036481556]]]]}}, {"id": "7", "type": "Feature", "properties": {"school": "Henry Elementary School", "school_id": 383.0, "syear": 2026, "level": "elementary", "source_note": "Approximate proximity-clustered enclosing polygon derived from parcel-level SLPS Focus lookup assignments, not an official boundary."}, "geometry": {"type": "MultiPolygon", "coordinates": [[[[-90.20504812581831, 38.64355962119696], [-90.20346670121764, 38.64914776903555], [-90.19996346181055, 38.64870176757223], [-90.1943968136588, 38.65042290302328], [-90.19304361381666, 38.649957280026754], [-90.19022707967204, 38.65171705912397], [-90.18736132674461, 38.65023474547451], [-90.18454454068872, 38.65188713355438], [-90.18554313142343, 38.65503286314151], [-90.18382387681864, 38.65556633425034], [-90.18249177361065, 38.65052986039117], [-90.18317357439727, 38.65031905195232], [-90.1840882371756, 38.64906147347668], [-90.18385587337937, 38.64833710215788], [-90.18510402543963, 38.64715420135697], [-90.1878690086618, 38.645888156832456], [-90.18737926144685, 38.64475706791629], [-90.1858202656151, 38.64388832601719], [-90.18290574435599, 38.64475413692725], [-90.18143149470586, 38.643350580560245], [-90.18057508539682, 38.63548761177203], [-90.18145015410224, 38.635276291489895], [-90.18175155998412, 38.633638272289325], [-90.18462169379376, 38.63407297190145], [-90.18652912877562, 38.6324852772855], [-90.18661241697374, 38.63342188468305], [-90.18552909884342, 38.634279895466115], [-90.18670151654898, 38.63767905822154], [-90.18768224517923, 38.638950209689085], [-90.18970914265181, 38.639378968271565], [-90.19081699544405, 38.64030079110192], [-90.19204080580536, 38.639863053969016], [-90.19200648448208, 38.63669177836018], [-90.19123793004648, 38.635437059443774], [-90.18908064233662, 38.63498322434515], [-90.1893125920071, 38.633997047189546], [-90.19025852049187, 38.634535607716984], [-90.191704948885, 38.63352974483153], [-90.19109349967839, 38.63215943518715], [-90.18994496055663, 38.632100631178645], [-90.18815882736796, 38.63073194379173], [-90.18690492424834, 38.63047133071465], [-90.18788394634697, 38.6278730765938], [-90.19719021833959, 38.62976478314418], [-90.1963700740462, 38.632205869714184], [-90.19217481188277, 38.632385156151045], [-90.19197684240714, 38.6335231268259], [-90.193847987167, 38.634273860823896], [-90.194726809743, 38.636309215975416], [-90.19387478995716, 38.64121857158007], [-90.20504812581831, 38.64355962119696]]], [[[-90.19167814339735, 38.6636838055604], [-90.19179769141843, 38.663785673731304], [-90.190680966033, 38.66400193461688], [-90.19167814339735, 38.6636838055604]]]]}}, {"id": "8", "type": "Feature", "properties": {"school": "Herzog Elementary School", "school_id": 385.0, "syear": 2026, "level": "elementary", "source_note": "Approximate proximity-clustered enclosing polygon derived from parcel-level SLPS Focus lookup assignments, not an official boundary."}, "geometry": {"type": "MultiPolygon", "coordinates": [[[[-90.25171615712, 38.71864839301852], [-90.24933981792, 38.71811766809732], [-90.24935734517257, 38.716472335225205], [-90.23790988098752, 38.716087698158496], [-90.23756869583885, 38.71797656600429], [-90.23514830190508, 38.719930211038566], [-90.23477505305914, 38.722100529613314], [-90.23988061407293, 38.72186427327082], [-90.24010531843048, 38.721969216987425], [-90.23471585517365, 38.72244754620052], [-90.23463298038986, 38.7229333655578], [-90.2303275015754, 38.725397339411856], [-90.2289925043878, 38.724775360781635], [-90.22921716492044, 38.72245361029964], [-90.22615907390889, 38.7207629869149], [-90.22369787377116, 38.72005376882906], [-90.21953050083059, 38.720565315966105], [-90.2178681334687, 38.72263343698411], [-90.21663722501116, 38.721736716429355], [-90.21721006027761, 38.713729553302734], [-90.21526672910068, 38.70668281452232], [-90.21325959107234, 38.70261612084454], [-90.22181420536165, 38.698197579545386], [-90.22271190246192, 38.69496313683145], [-90.21607117810858, 38.68790344878124], [-90.21986617452097, 38.68678913572895], [-90.2260743732588, 38.68357466555412], [-90.22836275655965, 38.6836299704028], [-90.22335361768123, 38.68629438947813], [-90.22312728955121, 38.68947190683706], [-90.2240243970126, 38.694032096132176], [-90.22632202452816, 38.697161632397126], [-90.22996464672592, 38.70475285310409], [-90.22994532679654, 38.70925575828861], [-90.23352657221278, 38.710948886931384], [-90.2355958704234, 38.71086802623303], [-90.23530665002214, 38.7125244801399], [-90.2359970992528, 38.714649800784464], [-90.2379341511733, 38.71595172728722], [-90.24684653004525, 38.71293044595516], [-90.24759073868599, 38.70945454143428], [-90.24966244692494, 38.70677030091739], [-90.2530604986575, 38.70356041177548], [-90.25914669809602, 38.69971685632108], [-90.26090669899685, 38.69886525611881], [-90.26532552006415, 38.699102187684105], [-90.26674486508212, 38.69783196798672], [-90.26796598725362, 38.69837114285055], [-90.25537079837503, 38.71430681384576], [-90.25289196891342, 38.715130917070134], [-90.25171615712, 38.71864839301852]]], [[[-90.18502319056968, 38.764956019877], [-90.1841877728212, 38.774362902635474], [-90.17536578502329, 38.773306762944955], [-90.18037932345507, 38.76290868967154], [-90.1836065024666, 38.753515339631775], [-90.18819333006921, 38.74871764235458], [-90.20325769937692, 38.73961120236986], [-90.21077560644743, 38.73365397556914], [-90.21294279165787, 38.73373705341244], [-90.20783088534111, 38.73738756982805], [-90.20604457386716, 38.74103723003714], [-90.1994949163316, 38.747394182247746], [-90.19440445867889, 38.751360566064676], [-90.19232550009758, 38.75500697256529], [-90.1877504454425, 38.759516208620695], [-90.18502319056968, 38.764956019877]]]]}}, {"id": "9", "type": "Feature", "properties": {"school": "Hickey Elementary School", "school_id": 384.0, "syear": 2026, "level": "elementary", "source_note": "Approximate proximity-clustered enclosing polygon derived from parcel-level SLPS Focus lookup assignments, not an official boundary."}, "geometry": {"type": "MultiPolygon", "coordinates": [[[[-90.29287459819675, 38.60214236037614], [-90.29308076997206, 38.602517666155826], [-90.29281708253099, 38.602489086276364], [-90.29287459819675, 38.60214236037614]]], [[[-90.2481990069864, 38.67592447648258], [-90.24561013537199, 38.67967347955747], [-90.24118177659729, 38.677712061636015], [-90.23700919635296, 38.681797140421374], [-90.22758112842062, 38.68247965271792], [-90.2255928971667, 38.6816289022545], [-90.21868544163364, 38.67307380822523], [-90.22206782841977, 38.668315410612216], [-90.22393001279765, 38.66912528786521], [-90.2258851168962, 38.677276731819006], [-90.2281269838876, 38.679718189033586], [-90.23017935369502, 38.6806375099334], [-90.23347258351018, 38.67897290275312], [-90.23757289318426, 38.680768283299834], [-90.24108597192999, 38.67766961257766], [-90.24184969957247, 38.676606391726985], [-90.24066849487411, 38.67345642971242], [-90.2366734947156, 38.669720630561315], [-90.23054918256591, 38.66704399563704], [-90.22754042212071, 38.66509415324649], [-90.22763716437893, 38.664392670153745], [-90.23197068133466, 38.663086543684145], [-90.23653253076318, 38.65700767100329], [-90.2381449292198, 38.65771369008089], [-90.24067237092142, 38.66029666576436], [-90.2431174795434, 38.66089623755572], [-90.24611405753923, 38.66074523021962], [-90.24720022490632, 38.659607092382075], [-90.24813869587886, 38.660017625420515], [-90.25182394283121, 38.65847531647353], [-90.2526052786802, 38.65671149781696], [-90.2528800747213, 38.65317713325229], [-90.25046804222414, 38.65090590553471], [-90.24682261444784, 38.649442289747576], [-90.24973137007211, 38.6436193937274], [-90.26349468332062, 38.64967743190481], [-90.2625962343533, 38.65249417625687], [-90.25986757695709, 38.65456799801459], [-90.2584560166865, 38.65892275067422], [-90.25588764676675, 38.660521948876706], [-90.25742190261592, 38.66355583272015], [-90.25459775266758, 38.666633171841646], [-90.25142503480723, 38.67192380449239], [-90.25066064631764, 38.67224289321092], [-90.24716818475852, 38.67154573028995], [-90.2449309474448, 38.673942052447686], [-90.2481990069864, 38.67592447648258]]], [[[-90.23231466676287, 38.64441656226621], [-90.23127023973628, 38.64493358483858], [-90.23007999749406, 38.64441106465255], [-90.23055858352325, 38.64413340512083], [-90.22999495075489, 38.64383876199091], [-90.23023772815145, 38.64350478436845], [-90.23056227848595, 38.64408782597986], [-90.23108002551731, 38.64387456079108], [-90.23078592412973, 38.64423320999008], [-90.23119459367886, 38.64392485582509], [-90.23231466676287, 38.64441656226621]]]]}}, {"id": "10", "type": "Feature", "properties": {"school": "Hodgen Elementary School", "school_id": 386.0, "syear": 2026, "level": "elementary", "source_note": "Approximate proximity-clustered enclosing polygon derived from parcel-level SLPS Focus lookup assignments, not an official boundary."}, "geometry": {"type": "Polygon", "coordinates": [[[-90.23943821489269, 38.628482195021014], [-90.2372087174475, 38.628030791227836], [-90.23608196017341, 38.628589685755685], [-90.23754560443766, 38.629521875698806], [-90.237315970811, 38.630071954987315], [-90.23576298340693, 38.6291923391928], [-90.2354091209946, 38.627657023369274], [-90.23285655175819, 38.627226773839276], [-90.23171948760655, 38.6275678098043], [-90.2322384232956, 38.62908637875438], [-90.2317925458341, 38.63051216811309], [-90.23081133112785, 38.630393911561946], [-90.23130464411966, 38.628928883979256], [-90.23058776074002, 38.627761012593986], [-90.22869296184307, 38.62719520994159], [-90.22911650090721, 38.625934691639955], [-90.22678608035471, 38.6238234246854], [-90.22588942593319, 38.623636491667355], [-90.22437436686964, 38.624186379833134], [-90.22282868355464, 38.62693806324884], [-90.21835696298642, 38.62575986537749], [-90.21844790341564, 38.62323505759661], [-90.22072886573142, 38.61705132590862], [-90.22243785833308, 38.61644727993769], [-90.22133717045728, 38.6143227997089], [-90.22215415168519, 38.61313719538401], [-90.22631730964515, 38.612229610707516], [-90.22677029284455, 38.61002163469816], [-90.2288398091162, 38.61030109580201], [-90.22858723643414, 38.611541034149646], [-90.22953936818055, 38.61262455736032], [-90.23297456074368, 38.613034700835655], [-90.23233430557414, 38.61554394467742], [-90.23298019820125, 38.61581975658954], [-90.23846317150144, 38.616184495283655], [-90.2406405846624, 38.61587891027992], [-90.24010828879707, 38.61387767390001], [-90.24171389158163, 38.614021951109905], [-90.24313390450283, 38.61279788547319], [-90.24556835357618, 38.61302016707352], [-90.24425336045485, 38.62177515262693], [-90.24188931703434, 38.62117209011629], [-90.24149659682843, 38.622444956406525], [-90.24336196970336, 38.62324536269408], [-90.2426955531075, 38.62512002113288], [-90.24136899820282, 38.62484484884569], [-90.24010177006429, 38.625733535067845], [-90.23943821489269, 38.628482195021014]]]}}, {"id": "11", "type": "Feature", "properties": {"school": "Jefferson Elementary School", "school_id": 390.0, "syear": 2026, "level": "elementary", "source_note": "Approximate proximity-clustered enclosing polygon derived from parcel-level SLPS Focus lookup assignments, not an official boundary."}, "geometry": {"type": "Polygon", "coordinates": [[[-90.21148257006266, 38.63886475353868], [-90.21267702045036, 38.639923222049894], [-90.21051123359084, 38.639467908075716], [-90.21081583215135, 38.63858243909803], [-90.20923972557533, 38.639200576537355], [-90.20688221395723, 38.638704874235984], [-90.20589373432075, 38.63910539254795], [-90.20506626332462, 38.64026473408077], [-90.20455781492251, 38.64322926530601], [-90.20084480954257, 38.642449185760455], [-90.20046173015051, 38.64142961100873], [-90.19934652004666, 38.641192740154445], [-90.1986380809241, 38.641269111801044], [-90.1983759153956, 38.641931024992275], [-90.19860265415349, 38.64121627083252], [-90.19895458249236, 38.64106389172492], [-90.1985215582589, 38.64028715058806], [-90.1974568839025, 38.64006354669634], [-90.19716620704763, 38.64091505837859], [-90.19642695347102, 38.641522263590275], [-90.19565505166503, 38.64136036035429], [-90.1955855865444, 38.64321733855956], [-90.19511432029267, 38.64323527052632], [-90.19559978143083, 38.64134876807322], [-90.19428436808043, 38.64107285097294], [-90.19440201408102, 38.64072801547145], [-90.19714617046417, 38.640913215546256], [-90.19743835360096, 38.64005729435734], [-90.19687326013795, 38.63872330314787], [-90.19545546471953, 38.637838612415784], [-90.19615729858874, 38.636535475526316], [-90.19721039831872, 38.63675503526926], [-90.19764668129011, 38.636328280088854], [-90.19665510582014, 38.63507515238262], [-90.19859929605201, 38.63545285054548], [-90.19818612082679, 38.63687697103603], [-90.19885971718989, 38.63718918820906], [-90.19978637701307, 38.6367772536345], [-90.19972245696252, 38.63632907212489], [-90.20361949778433, 38.63714893274396], [-90.20450054782336, 38.636692436814116], [-90.20692694691407, 38.63673339278197], [-90.20987580862487, 38.63735453621876], [-90.21044022386765, 38.635714586573215], [-90.20581689299425, 38.634712768245166], [-90.20594879072992, 38.63432728674506], [-90.20505738348363, 38.63399661382896], [-90.20454321836627, 38.634443948630455], [-90.20306736629608, 38.63413625585734], [-90.20215653547199, 38.6333939032803], [-90.19702971369475, 38.633294683031366], [-90.19675290502812, 38.63227525631895], [-90.19801170655177, 38.631047804133296], [-90.19810283010573, 38.62996101300889], [-90.2004137151309, 38.63043921743758], [-90.20082388807604, 38.63152855448613], [-90.20155006030224, 38.63067582322452], [-90.20715625659635, 38.63184328608109], [-90.20727641783762, 38.63222968380485], [-90.21399030545437, 38.63326862929572], [-90.21309119719936, 38.63491817828498], [-90.2117213432466, 38.63595479674434], [-90.21079534550273, 38.635789053178485], [-90.21001696288431, 38.63738426686066], [-90.21114617710218, 38.6376220986094], [-90.21148257006266, 38.63886475353868]]]}}, {"id": "12", "type": "Feature", "properties": {"school": "Laclede Elementary School", "school_id": 392.0, "syear": 2026, "level": "elementary", "source_note": "Approximate proximity-clustered enclosing polygon derived from parcel-level SLPS Focus lookup assignments, not an official boundary."}, "geometry": {"type": "Polygon", "coordinates": [[[-90.27167953795997, 38.69385123569689], [-90.27048818558497, 38.68918291620952], [-90.27161004468283, 38.68563957236425], [-90.27374886134562, 38.68586796287847], [-90.27363670535767, 38.683803992102646], [-90.27241491171182, 38.682994494738836], [-90.2710357701974, 38.680909735049596], [-90.26793519320299, 38.68062462853332], [-90.26579948353537, 38.67927255620999], [-90.26661545184042, 38.67792995283769], [-90.26577387536383, 38.67598352185774], [-90.2637101588524, 38.67507135996168], [-90.26292487383787, 38.67368262099267], [-90.26320634219427, 38.672485408682675], [-90.26596520356192, 38.669410389819674], [-90.26742613925954, 38.66647374518049], [-90.27227157377547, 38.66218997177646], [-90.27582400039795, 38.66342235067864], [-90.27672520129009, 38.664813717004485], [-90.28053614692799, 38.66562873828359], [-90.28163127316299, 38.66641108731644], [-90.28424720764984, 38.66556578758594], [-90.28990640980699, 38.668622841128496], [-90.28922572515991, 38.669558174186484], [-90.289361198496, 38.67145479216991], [-90.28251630976554, 38.68002690593823], [-90.28062866560396, 38.67918708946256], [-90.27807283147135, 38.679821756278656], [-90.27801975715961, 38.68181628698248], [-90.27988979422695, 38.68265710216392], [-90.27983635205031, 38.68344260851667], [-90.27880214833971, 38.6847478453094], [-90.27673972680105, 38.685191169583646], [-90.27568491941511, 38.68664204592147], [-90.27596913468804, 38.688346567236366], [-90.27167953795997, 38.69385123569689]]]}}, {"id": "13", "type": "Feature", "properties": {"school": "Lexington Elementary School", "school_id": 393.0, "syear": 2026, "level": "elementary", "source_note": "Approximate proximity-clustered enclosing polygon derived from parcel-level SLPS Focus lookup assignments, not an official boundary."}, "geometry": {"type": "Polygon", "coordinates": [[[-90.27028054705923, 38.683435707611736], [-90.27118358877604, 38.68579958234176], [-90.26989002610969, 38.68499304449491], [-90.26824834685372, 38.68608875880197], [-90.26651099557017, 38.68526328124447], [-90.26506289730567, 38.685370492482775], [-90.25941952587988, 38.6866056399225], [-90.25847785583622, 38.687146866984925], [-90.25897044740924, 38.68870557756591], [-90.25818511125635, 38.68983210808821], [-90.2569596276917, 38.68930733199308], [-90.25819347697755, 38.68755539872453], [-90.25688018984047, 38.68638279498384], [-90.25574674388162, 38.686146532711575], [-90.25524326769158, 38.684618842215194], [-90.2546135497809, 38.684348204743614], [-90.25316451590197, 38.684690236664494], [-90.25161638351652, 38.687806083227805], [-90.24977374305475, 38.68728105718922], [-90.24747454374254, 38.68627571639454], [-90.24916695203675, 38.684536337827474], [-90.24610083527375, 38.68445237815401], [-90.24825671347982, 38.68192965852161], [-90.24823762155764, 38.6804342428468], [-90.24649236702714, 38.67967418165941], [-90.24810894179076, 38.67662318896717], [-90.24713047523697, 38.67527153224528], [-90.24352858312562, 38.67427174436772], [-90.24582669118824, 38.67108087723181], [-90.24772136935472, 38.67107441629958], [-90.25268920259721, 38.67370605767869], [-90.25549117595752, 38.6744150193998], [-90.25662214202733, 38.6736712290736], [-90.25597021903613, 38.67225785086481], [-90.25223291438863, 38.67107602335551], [-90.25179806454533, 38.66926548635027], [-90.24836813527493, 38.667542150514564], [-90.24889202707813, 38.66681828374323], [-90.25254071397636, 38.66843295224015], [-90.25430776118766, 38.66817935394246], [-90.2575409292742, 38.66367022172044], [-90.25854105975459, 38.66310522437008], [-90.260144746901, 38.66380906427864], [-90.25943122160358, 38.66482744747378], [-90.26018198175515, 38.66621602572013], [-90.26229242471817, 38.666628570753865], [-90.26425857163414, 38.66634168373575], [-90.26539225850566, 38.665270202175584], [-90.26729163218897, 38.66609567693013], [-90.26484290736478, 38.668731036409724], [-90.26166085730621, 38.67371807119975], [-90.26249901400155, 38.67472615924087], [-90.26718881551423, 38.67679513340413], [-90.26609851325036, 38.678314167731784], [-90.26642883021215, 38.67984875852735], [-90.27289159020451, 38.68148223058708], [-90.27230785627786, 38.682687862737275], [-90.27028054705923, 38.683435707611736]]]}}, {"id": "14", "type": "Feature", "properties": {"school": "Mann Elementary School", "school_id": 396.0, "syear": 2026, "level": "elementary", "source_note": "Approximate proximity-clustered enclosing polygon derived from parcel-level SLPS Focus lookup assignments, not an official boundary."}, "geometry": {"type": "Polygon", "coordinates": [[[-90.2659559425425, 38.614606649581305], [-90.26348703357597, 38.61508607328346], [-90.26164928217013, 38.61677503698124], [-90.25961368096937, 38.61690700140523], [-90.2627171971696, 38.611812637019455], [-90.26282403447733, 38.61117064423313], [-90.26133856353883, 38.610460228617164], [-90.26152715891718, 38.60923345574725], [-90.26573119643002, 38.60941170568989], [-90.26668388217132, 38.60524589526586], [-90.26548422112813, 38.60491220944118], [-90.24632098548847, 38.60309997226763], [-90.24439041636406, 38.60738397708304], [-90.25559582219319, 38.60866973673095], [-90.25653129501809, 38.60976765595781], [-90.2578769039314, 38.6086640543879], [-90.25944250679943, 38.60903613633253], [-90.25925387762547, 38.61026290487253], [-90.25744090680973, 38.61055933704122], [-90.25682297939338, 38.61369211401272], [-90.24319248354055, 38.6124162109342], [-90.24323503074237, 38.60749566305867], [-90.24158012789026, 38.60711740593647], [-90.24245709965922, 38.60295411381452], [-90.24617666837626, 38.603086290962416], [-90.2467520086246, 38.59944315522045], [-90.24558627506411, 38.59841266900095], [-90.2430992386623, 38.59817064009599], [-90.24390505422913, 38.596559822687006], [-90.24413214733138, 38.59246144905342], [-90.25108864933286, 38.591611145885196], [-90.25301433272847, 38.59296790923844], [-90.25661088499547, 38.59335066465478], [-90.25788090053761, 38.59436104981998], [-90.26086797128957, 38.594594404589905], [-90.26220999506242, 38.5968579831958], [-90.26017777087436, 38.597929555743505], [-90.26123056332162, 38.59901497796702], [-90.26921440101077, 38.59954665289878], [-90.26927320458695, 38.60072963946158], [-90.26745686518377, 38.6002010006243], [-90.26573198636645, 38.60093488674661], [-90.26549507615162, 38.60250737558717], [-90.26651120542635, 38.60370481326739], [-90.26869982841487, 38.603912663609535], [-90.26900507442168, 38.605307510519005], [-90.26761423984243, 38.61211245678085], [-90.26681881578173, 38.61317004167584], [-90.26589764101979, 38.613319207503224], [-90.2659559425425, 38.614606649581305]]]}}, {"id": "15", "type": "Feature", "properties": {"school": "Mason Elementary School", "school_id": 397.0, "syear": 2026, "level": "elementary", "source_note": "Approximate proximity-clustered enclosing polygon derived from parcel-level SLPS Focus lookup assignments, not an official boundary."}, "geometry": {"type": "Polygon", "coordinates": [[[-90.30594703661492, 38.636048373900856], [-90.30409044150163, 38.64419753398131], [-90.30338514360317, 38.64417780325821], [-90.30284353155025, 38.64329654354547], [-90.30302669576271, 38.641050298187245], [-90.3043303664814, 38.63543917107973], [-90.30290144450967, 38.632378813704946], [-90.2652476750058, 38.62869926295896], [-90.26725635618781, 38.61561750422086], [-90.26865311617576, 38.611801664562975], [-90.27017794368422, 38.60327713117599], [-90.27128846528626, 38.601372648246034], [-90.26829942297162, 38.598251878335674], [-90.26868943491208, 38.59653473919531], [-90.27620650638676, 38.597699767057165], [-90.28169396632278, 38.59717426969288], [-90.28512530963482, 38.59865181333504], [-90.28871742225535, 38.596212359553654], [-90.2893029462692, 38.593018998167594], [-90.29299911578421, 38.591074752308046], [-90.29956576698949, 38.592202306792935], [-90.31008601116147, 38.59056415323859], [-90.31369181852713, 38.590934659127555], [-90.31445632351428, 38.582553172422855], [-90.31499117643149, 38.58205462822024], [-90.31381356813547, 38.590947137513346], [-90.31933367370696, 38.59128571919761], [-90.31973014211347, 38.59208504204054], [-90.31834362812724, 38.595153711163114], [-90.31738988597336, 38.60263886312576], [-90.31199432496793, 38.616245573970694], [-90.30798641809432, 38.63235841742281], [-90.30594703661492, 38.636048373900856]]]}}, {"id": "16", "type": "Feature", "properties": {"school": "Meramec Elementary School", "school_id": 398.0, "syear": 2026, "level": "elementary", "source_note": "Approximate proximity-clustered enclosing polygon derived from parcel-level SLPS Focus lookup assignments, not an official boundary."}, "geometry": {"type": "Polygon", "coordinates": [[[-90.24850824575252, 38.58474781615654], [-90.24866945146802, 38.58663592937625], [-90.245485680725, 38.58630296864008], [-90.24552726971878, 38.584577114071784], [-90.24426638209499, 38.58471005369515], [-90.24409848732166, 38.585954268630566], [-90.24318838683836, 38.58624309124578], [-90.22873092391417, 38.58442457942384], [-90.22901678410715, 38.58279195389807], [-90.22381207398308, 38.58197570366469], [-90.22518907261804, 38.58131241554801], [-90.22528318909217, 38.58032786041319], [-90.22474442763837, 38.58026108226295], [-90.22632065325406, 38.578619169827455], [-90.22734185290135, 38.57891323785559], [-90.22835274659529, 38.5783580727716], [-90.2276926263777, 38.57887353563579], [-90.22850435099797, 38.580803855054114], [-90.22732127767568, 38.58109473906222], [-90.22735797746518, 38.58206976633472], [-90.22916852659543, 38.58229656629939], [-90.23026806588982, 38.58188429415031], [-90.2306448652126, 38.58008176221698], [-90.23002327739152, 38.579304092809494], [-90.23286673279593, 38.577058729137384], [-90.232418809245, 38.576143437951636], [-90.2306296038984, 38.57577603676271], [-90.22955894642521, 38.57729967053599], [-90.22902561473683, 38.57723321021261], [-90.22882021911524, 38.57622840730859], [-90.22991976202022, 38.57556566008759], [-90.2360881955012, 38.57633962686163], [-90.23527213101018, 38.57926284774878], [-90.23593296629222, 38.579986145639246], [-90.23748440096381, 38.580014762451036], [-90.23819830936904, 38.577433727770696], [-90.23763687663957, 38.576533889936684], [-90.24255496014472, 38.577013874952826], [-90.24363988272364, 38.57755526030109], [-90.24341677016875, 38.57874497840072], [-90.24486939939096, 38.5794979706643], [-90.24641712072832, 38.57897547412093], [-90.24675890158379, 38.580379700419115], [-90.24855822785742, 38.581310039103535], [-90.24967525312225, 38.58168973408677], [-90.25030384161612, 38.58095721761499], [-90.25108343686017, 38.5813546968222], [-90.24850824575252, 38.58474781615654]]]}}, {"id": "17", "type": "Feature", "properties": {"school": "Monroe Elementary School", "school_id": 400.0, "syear": 2026, "level": "elementary", "source_note": "Approximate proximity-clustered enclosing polygon derived from parcel-level SLPS Focus lookup assignments, not an official boundary."}, "geometry": {"type": "Polygon", "coordinates": [[[-90.22996049547011, 38.59365409941891], [-90.2187661963519, 38.592364388744016], [-90.21594222323934, 38.59369160193514], [-90.2154801815648, 38.59639109705766], [-90.21306673554545, 38.59570486569737], [-90.21294450708342, 38.59461533460052], [-90.21467606482749, 38.591026931020174], [-90.211587594748, 38.58997348074862], [-90.21009100369503, 38.59088767572412], [-90.20645381323118, 38.59135683410896], [-90.20843879395125, 38.589928984527084], [-90.20933316928631, 38.587576844154576], [-90.21068847973882, 38.58646198840915], [-90.21188637799533, 38.585988704904246], [-90.21305813328404, 38.5871046568661], [-90.21630876085882, 38.5867701402776], [-90.21951683736287, 38.584561810359375], [-90.2222748242163, 38.58145184636483], [-90.22682243319926, 38.58251560436321], [-90.22982313468975, 38.575470107579896], [-90.22835353638382, 38.57436728163148], [-90.23248049996243, 38.57220655795909], [-90.23400702284087, 38.56913985445036], [-90.23793632073796, 38.56786936157394], [-90.24004871965809, 38.56567394317953], [-90.2424269062233, 38.566912796877105], [-90.24191429643797, 38.56779721229718], [-90.24431294322308, 38.57002623725961], [-90.24202058601705, 38.576916809440405], [-90.22986964465612, 38.575475944641056], [-90.22692578367779, 38.58252841215485], [-90.22889099492572, 38.584616826150636], [-90.23061054687435, 38.58483348041322], [-90.22996049547011, 38.59365409941891]]]}}, {"id": "18", "type": "Feature", "properties": {"school": "Nance Elementary School", "school_id": 403.0, "syear": 2026, "level": "elementary", "source_note": "Approximate proximity-clustered enclosing polygon derived from parcel-level SLPS Focus lookup assignments, not an official boundary."}, "geometry": {"type": "Polygon", "coordinates": [[[-90.25005197393781, 38.71872272270037], [-90.24573680999029, 38.72138596502757], [-90.22793097061796, 38.728130842391934], [-90.21851492287713, 38.73015720842475], [-90.21798180131988, 38.73357598041782], [-90.21076876375552, 38.737679696360644], [-90.19763384446937, 38.74902080414225], [-90.19408667133872, 38.75332100485018], [-90.1933545245375, 38.75320920003867], [-90.20041630401482, 38.74421433630891], [-90.20835514034182, 38.7374206454761], [-90.21474967161494, 38.733314297719396], [-90.21782567047478, 38.728634911422326], [-90.22596060412954, 38.72426623193131], [-90.22685955066076, 38.72278356842864], [-90.23395939181069, 38.72404139706128], [-90.23487401339388, 38.72255692269232], [-90.23563568917623, 38.7180429572797], [-90.23515652383338, 38.71438018607355], [-90.23101299473717, 38.71127331241332], [-90.2309671896958, 38.706471501207375], [-90.23448884739265, 38.70861920304676], [-90.24473962325204, 38.71269639106967], [-90.24797560445236, 38.71741431067676], [-90.25005197393781, 38.71872272270037]]]}}, {"id": "19", "type": "Feature", "properties": {"school": "Oak Hill Elementary School", "school_id": 402.0, "syear": 2026, "level": "elementary", "source_note": "Approximate proximity-clustered enclosing polygon derived from parcel-level SLPS Focus lookup assignments, not an official boundary."}, "geometry": {"type": "Polygon", "coordinates": [[[-90.26870184917227, 38.59581922776378], [-90.26822476030738, 38.599185909068986], [-90.26251193798758, 38.598605194810176], [-90.26351247360351, 38.59770004756074], [-90.26249660811088, 38.59638588752357], [-90.25944207206304, 38.59444314621879], [-90.25671990976446, 38.59407164545643], [-90.2549120038257, 38.59300338582783], [-90.25187248749543, 38.592680486351064], [-90.25168102493511, 38.59208033988814], [-90.25011024204316, 38.59146492287381], [-90.24807821190356, 38.591673079998266], [-90.24887167601852, 38.59006375743628], [-90.24899119685693, 38.58576787444811], [-90.25078071249278, 38.5810034716635], [-90.25333487684827, 38.58137004153892], [-90.25420216074157, 38.580419793899836], [-90.25335618969149, 38.578952211763244], [-90.25523157568868, 38.57717308678921], [-90.25570508637811, 38.57570905006317], [-90.26671971158899, 38.58152810578005], [-90.26627230495889, 38.58187710506662], [-90.26712002373314, 38.58350250818547], [-90.27272711060785, 38.58295073984862], [-90.27620762936942, 38.58379800169892], [-90.276466615024, 38.585165846538004], [-90.27527769342498, 38.58764634619694], [-90.27322687510967, 38.587290251303834], [-90.27208055253047, 38.58844306455015], [-90.27318645836782, 38.58964793803456], [-90.2729921323174, 38.59161121265898], [-90.27089769744256, 38.59382503322218], [-90.26962469708288, 38.59432798598247], [-90.26870184917227, 38.59581922776378]]]}}, {"id": "20", "type": "Feature", "properties": {"school": "Pamoja @ Cole Elementary School", "school_id": 377.0, "syear": 2026, "level": "elementary", "source_note": "Approximate proximity-clustered enclosing polygon derived from parcel-level SLPS Focus lookup assignments, not an official boundary."}, "geometry": {"type": "Polygon", "coordinates": [[[-90.25063185592099, 38.660793993021585], [-90.24763982612443, 38.659642179778245], [-90.24572926051076, 38.65998844921537], [-90.24470048133891, 38.661434805126234], [-90.24037677087172, 38.66012035080372], [-90.24013065638663, 38.65897332405842], [-90.2378824032117, 38.65844622084105], [-90.23661934858502, 38.65688561892512], [-90.23845107278166, 38.65431039749799], [-90.23827646961207, 38.652653629862755], [-90.23021255881198, 38.649115371863395], [-90.23155827129939, 38.64506583974964], [-90.23081555899306, 38.64356964869481], [-90.22976044905673, 38.64310643700667], [-90.23210668020548, 38.641963608303314], [-90.2309975688536, 38.640941071715474], [-90.23262969799663, 38.63777476286222], [-90.23545270123682, 38.639014249925225], [-90.23680819302712, 38.63857586149522], [-90.23918759939274, 38.639508494250606], [-90.24174519366406, 38.63925098665626], [-90.2441198646284, 38.64034411375221], [-90.24569401968272, 38.640492408144276], [-90.24672687038108, 38.64028148210402], [-90.24763473978217, 38.638031131456714], [-90.23418578392227, 38.63526407102034], [-90.23558673447656, 38.629845852489666], [-90.23722262857011, 38.630180548641384], [-90.23849180430419, 38.63141383026137], [-90.23788105268554, 38.63316591310655], [-90.23906431909336, 38.634349832101506], [-90.25182589688661, 38.636997444240755], [-90.25085763091333, 38.63870004870747], [-90.24764154963351, 38.63803254522725], [-90.24712318500629, 38.6403640761725], [-90.2502799666973, 38.64156044042032], [-90.24911015827756, 38.644128885932915], [-90.24923613162487, 38.64574508598504], [-90.24851666902256, 38.64673759432025], [-90.24753632794543, 38.645478369795974], [-90.2455833133544, 38.64619356387957], [-90.24569804085354, 38.64726742965385], [-90.24744184944518, 38.64824066551099], [-90.24663800899326, 38.64936360203265], [-90.24663603743366, 38.650597310256714], [-90.24814465370295, 38.65126077883758], [-90.24893752220135, 38.65389090830151], [-90.25191243404005, 38.652940463453994], [-90.25489335350936, 38.65391126957887], [-90.25468281691955, 38.65538485335718], [-90.24698791368223, 38.6537468541044], [-90.24721684110656, 38.65532920832962], [-90.25279983508395, 38.65777862015198], [-90.25063185592099, 38.660793993021585]]]}}, {"id": "21", "type": "Feature", "properties": {"school": "Peabody Elementary School", "school_id": 404.0, "syear": 2026, "level": "elementary", "source_note": "Approximate proximity-clustered enclosing polygon derived from parcel-level SLPS Focus lookup assignments, not an official boundary."}, "geometry": {"type": "MultiPolygon", "coordinates": [[[[-90.31484540886714, 38.5858789255322], [-90.31533837963809, 38.58552407917147], [-90.31632692305868, 38.58481863556674], [-90.31558640295158, 38.586704165342844], [-90.31509941532393, 38.5861618163978], [-90.31493710135338, 38.58581292478165], [-90.31484540886714, 38.5858789255322]]], [[[-90.31558640295158, 38.586704165342844], [-90.31558640659603, 38.5867041694016], [-90.31558640195391, 38.58670416788313], [-90.31558640295158, 38.586704165342844]]], [[[-90.31742030014583, 38.587304049437904], [-90.31599578513325, 38.587160086564964], [-90.31558640659603, 38.5867041694016], [-90.31742030014583, 38.587304049437904]]], [[[-90.19454187368034, 38.629034387131796], [-90.19004153170506, 38.63044223855852], [-90.18242881822542, 38.62979469068142], [-90.18631488666621, 38.629814933224964], [-90.1886735195587, 38.62588286687326], [-90.18817420232355, 38.61986604867033], [-90.18712427197477, 38.619507189402746], [-90.18800893825589, 38.6178151729119], [-90.18817570723871, 38.61183779862745], [-90.19199761341581, 38.60988692849694], [-90.19362937743422, 38.607304867668354], [-90.1963452865621, 38.60723676339369], [-90.20519650738882, 38.61224533532382], [-90.21054131049691, 38.61371482023674], [-90.21024224858543, 38.6186235726376], [-90.21336348326683, 38.62125773432385], [-90.21488488668386, 38.6252218008729], [-90.21832088041428, 38.62519095145509], [-90.22244135098346, 38.62705288430175], [-90.22422736766939, 38.63013022995601], [-90.22831705536639, 38.62831004679213], [-90.22863906518154, 38.627355404790876], [-90.23484275747873, 38.629281513068456], [-90.23525200047825, 38.62982523360942], [-90.23318129170957, 38.63574457761096], [-90.2304730127882, 38.63731134899507], [-90.22030674369817, 38.63430122848249], [-90.19454187368034, 38.629034387131796]]], [[[-90.2141305058619, 38.7274527997128], [-90.22157709276483, 38.728166348840325], [-90.22401654994663, 38.72672283069378], [-90.20648541727732, 38.738651872530504], [-90.19568709374097, 38.74817604272421], [-90.19299123379811, 38.75097316203602], [-90.19601244858741, 38.747631444778726], [-90.20783088534111, 38.73738756982805], [-90.2141305058619, 38.7274527997128]]]]}}, {"id": "22", "type": "Feature", "properties": {"school": "Shenandoah Elementary School", "school_id": 406.0, "syear": 2026, "level": "elementary", "source_note": "Approximate proximity-clustered enclosing polygon derived from parcel-level SLPS Focus lookup assignments, not an official boundary."}, "geometry": {"type": "Polygon", "coordinates": [[[-90.24360483871303, 38.60853973175204], [-90.24288666099008, 38.6132539422339], [-90.23902096424453, 38.61273987354925], [-90.23524829419252, 38.61340916947366], [-90.2345985956795, 38.61548055238303], [-90.23332258326798, 38.61495605239237], [-90.23368756484344, 38.61313596537179], [-90.23526380165448, 38.61333372412938], [-90.23904198853263, 38.61263646185209], [-90.23920402524786, 38.61183988742538], [-90.24128062991474, 38.61185126458738], [-90.24123382813971, 38.61029507466924], [-90.24017411223818, 38.60970595912634], [-90.23943752140629, 38.610128927844734], [-90.23003012868445, 38.60896105344144], [-90.22898515882927, 38.60959762835763], [-90.22939813900622, 38.610777749179206], [-90.22895547179387, 38.6116544749915], [-90.22822062042742, 38.610050310067706], [-90.22680650759517, 38.60985934851083], [-90.22701329887184, 38.60883581777496], [-90.22592331131918, 38.60794841305474], [-90.22606477352014, 38.60727498469346], [-90.22688731548294, 38.606297083252166], [-90.22886450720287, 38.60664383874588], [-90.22994002014612, 38.606052202251426], [-90.2312768639753, 38.59961536383989], [-90.23220072008968, 38.599735159181854], [-90.2332121779483, 38.598421499160224], [-90.2369326765208, 38.60102190785787], [-90.23794510530392, 38.600362433112174], [-90.2381795948366, 38.599282531394465], [-90.23620772057997, 38.59844036608712], [-90.23822936740797, 38.59904057215365], [-90.23869917186694, 38.59778881788991], [-90.24666357949138, 38.598683511622674], [-90.24596763900693, 38.603066473569164], [-90.24298757183817, 38.60278310100837], [-90.24198982115455, 38.60338307351058], [-90.24141414658223, 38.606179776831524], [-90.2401400997837, 38.6066964940642], [-90.24066646781229, 38.60751256284508], [-90.24153448513209, 38.607334349458526], [-90.24167969525422, 38.608333001265095], [-90.24273644702124, 38.608456158934146], [-90.24323503074237, 38.60749566305867], [-90.24360483871303, 38.60853973175204]]]}}, {"id": "23", "type": "Feature", "properties": {"school": "Sigel Elementary School", "school_id": 407.0, "syear": 2026, "level": "elementary", "source_note": "Approximate proximity-clustered enclosing polygon derived from parcel-level SLPS Focus lookup assignments, not an official boundary."}, "geometry": {"type": "Polygon", "coordinates": [[[-90.2207443327334, 38.61498509477583], [-90.21800218005782, 38.62415246175541], [-90.21339490430998, 38.624822878541536], [-90.21455620410288, 38.62398205900065], [-90.21102394451, 38.62053710795013], [-90.20895966230646, 38.62010192402677], [-90.21050927767982, 38.61489802912893], [-90.2088049955393, 38.613157391242915], [-90.20672168038902, 38.612902902386374], [-90.20074826800271, 38.60952315665816], [-90.20300529125531, 38.60687009652326], [-90.19937303018759, 38.60569997802167], [-90.19806064625934, 38.6079952946968], [-90.19533110366716, 38.6077388672529], [-90.19536916020449, 38.60433188061213], [-90.19591184671465, 38.603563142179794], [-90.19938603769666, 38.6056720503993], [-90.20324719994812, 38.60653223188337], [-90.20392517212439, 38.605585317092725], [-90.2017324908099, 38.60390040804079], [-90.20210555913343, 38.60304531704404], [-90.2005478679299, 38.601454367683544], [-90.19837711587144, 38.600159786065426], [-90.19899332893665, 38.60033754615751], [-90.19997866368993, 38.59832682633058], [-90.19882347528926, 38.597327175741476], [-90.20083972782385, 38.59505766611505], [-90.20181594026582, 38.5955883748793], [-90.20160463499793, 38.59729753889798], [-90.20232168613934, 38.598402293705625], [-90.20509915529644, 38.59652814944048], [-90.20778275798844, 38.59700840672068], [-90.20977536365916, 38.596583558798514], [-90.20820414368531, 38.59391032384403], [-90.2031040082393, 38.59185477164418], [-90.20515216830817, 38.59052152788638], [-90.21148450812012, 38.59578954193664], [-90.21489209473067, 38.59639956490871], [-90.21678413776404, 38.595616674455115], [-90.21609109287095, 38.594022290123796], [-90.21646056816758, 38.59224513801032], [-90.23104478231261, 38.594064335462555], [-90.23033674927161, 38.59748744246891], [-90.23106971642017, 38.599588529613584], [-90.22961629773899, 38.60657057965437], [-90.22847153789834, 38.60642812112291], [-90.22692138561953, 38.608239232398255], [-90.22603933576035, 38.612545722377604], [-90.22356942200082, 38.61315045166517], [-90.22218757244448, 38.61297454103488], [-90.22011807834889, 38.61411433801293], [-90.2207443327334, 38.61498509477583]]]}}, {"id": "24", "type": "Feature", "properties": {"school": "Walbridge Elementary School", "school_id": 409.0, "syear": 2026, "level": "elementary", "source_note": "Approximate proximity-clustered enclosing polygon derived from parcel-level SLPS Focus lookup assignments, not an official boundary."}, "geometry": {"type": "Polygon", "coordinates": [[[-90.26148910872188, 38.695271140811556], [-90.26577971027022, 38.69629222652949], [-90.26527483886424, 38.69701359447364], [-90.2640441478552, 38.69647636217019], [-90.2610518856572, 38.69725688216902], [-90.25899746528201, 38.699456599878246], [-90.25742903377709, 38.69894212993457], [-90.25499294823602, 38.70027490246278], [-90.25509209762464, 38.7018139355668], [-90.25266506836759, 38.70321748237241], [-90.24944832754105, 38.70652717795801], [-90.24444611094201, 38.70082054214882], [-90.24327706706974, 38.698697477702375], [-90.2411302518342, 38.6970032811318], [-90.23006327459352, 38.684112163509276], [-90.23062350909622, 38.68305322316249], [-90.23370150918431, 38.683467588059294], [-90.23764584208453, 38.68317457822152], [-90.2400131297278, 38.68371581668979], [-90.2416510276094, 38.68543712781495], [-90.24446396848008, 38.68533244798144], [-90.25786551935236, 38.69146677927856], [-90.26082155019216, 38.69065240156523], [-90.26512458926278, 38.68534696913138], [-90.26922806162335, 38.68488801615078], [-90.27070271321706, 38.68585433397291], [-90.26982323727968, 38.68908633748448], [-90.26661952177932, 38.69001862499664], [-90.26549250381392, 38.69178087058173], [-90.26148910872188, 38.695271140811556]]]}}, {"id": "25", "type": "Feature", "properties": {"school": "Woerner Elementary School", "school_id": 410.0, "syear": 2026, "level": "elementary", "source_note": "Approximate proximity-clustered enclosing polygon derived from parcel-level SLPS Focus lookup assignments, not an official boundary."}, "geometry": {"type": "Polygon", "coordinates": [[[-90.27551731945067, 38.57658021882507], [-90.27005571296588, 38.578894563824576], [-90.26686696830261, 38.58140745175105], [-90.25600948569698, 38.5756270896259], [-90.25971128509958, 38.5677229541745], [-90.25791067053571, 38.56543569878928], [-90.2599813684291, 38.562781215394224], [-90.26238137602209, 38.56472469328072], [-90.26734576197444, 38.56733116321412], [-90.27077686854001, 38.56680872057025], [-90.27182788715155, 38.56557439819326], [-90.27123483078903, 38.56288022530381], [-90.257042758131, 38.555500916295415], [-90.25665076252939, 38.55284629630094], [-90.2532715431729, 38.550683334876446], [-90.25391850363032, 38.547993556997135], [-90.25279312991485, 38.54396163639462], [-90.25429904051042, 38.54118255160686], [-90.25755455684337, 38.53724351431097], [-90.26049423998987, 38.536626482129805], [-90.26265219934166, 38.53471914500013], [-90.26512748752856, 38.53410591506516], [-90.26933202711328, 38.537222665442876], [-90.27060001187756, 38.53920835350334], [-90.272084377272, 38.547045938592134], [-90.27381366448954, 38.54927163978503], [-90.27788692838215, 38.55059371242195], [-90.28593730415656, 38.55472751391476], [-90.2923882482047, 38.558970893944924], [-90.29192007911614, 38.55954078433411], [-90.28709740265258, 38.55980605836431], [-90.28656068890383, 38.56170838782636], [-90.28886822116705, 38.56452455302363], [-90.28584945286327, 38.56634383866105], [-90.28225387748302, 38.56548381537861], [-90.2800311265144, 38.56727553114594], [-90.27655374184614, 38.57254716126223], [-90.27659110087193, 38.57539278227856], [-90.27551731945067, 38.57658021882507]]]}}, {"id": "26", "type": "Feature", "properties": {"school": "Woodward Elementary School", "school_id": 414.0, "syear": 2026, "level": "elementary", "source_note": "Approximate proximity-clustered enclosing polygon derived from parcel-level SLPS Focus lookup assignments, not an official boundary."}, "geometry": {"type": "Polygon", "coordinates": [[[-90.25422042600853, 38.57762432554723], [-90.25190481913235, 38.57959598426298], [-90.2503674130757, 38.57962812529497], [-90.2501428515554, 38.58067784692002], [-90.24867590322135, 38.581173582324986], [-90.24635931437031, 38.57997496334238], [-90.24667962459831, 38.57891262377774], [-90.24231584446675, 38.5766809035962], [-90.24430262112857, 38.57070648151502], [-90.2436010095778, 38.56977069289903], [-90.24108599220041, 38.56943581054207], [-90.24230180575782, 38.567423814924574], [-90.2419721364849, 38.56651244960735], [-90.24011839344355, 38.56554547540719], [-90.2436929169948, 38.560475382883354], [-90.24209584048147, 38.55971232259536], [-90.24649183299975, 38.5539176526999], [-90.24593811700326, 38.55481256374665], [-90.2475023794497, 38.555766885425236], [-90.24822988894701, 38.555078694510335], [-90.24978473200892, 38.555419789793405], [-90.25049883034019, 38.554788832677346], [-90.25033240005807, 38.55370886067408], [-90.24952311333246, 38.55316758774324], [-90.25154425837282, 38.55088248155003], [-90.25251585983379, 38.5513502080967], [-90.2532715431729, 38.550683334876446], [-90.25750726913061, 38.55359742008531], [-90.25653647428761, 38.55445003927808], [-90.2567268443147, 38.55553424949371], [-90.25936351916528, 38.55690524780626], [-90.25600455308525, 38.56008555730897], [-90.25658148228337, 38.56099986265771], [-90.25898910473076, 38.56225868819088], [-90.25692894424357, 38.56466421575437], [-90.25781310988293, 38.56554964472811], [-90.26011689801422, 38.56637690358603], [-90.25753285579121, 38.57294723952124], [-90.25591924234034, 38.573026844388345], [-90.25673764165425, 38.5741356536397], [-90.25600948569698, 38.5756270896259], [-90.25613497833157, 38.57480966699098], [-90.25490263956564, 38.57423204176853], [-90.25413559044165, 38.575953416577335], [-90.2536666941106, 38.57592380375713], [-90.25133683343894, 38.57320301180631], [-90.24940823543214, 38.57348861377236], [-90.24940543608838, 38.574274942527985], [-90.24855506904412, 38.57461745885542], [-90.24884706259829, 38.57571352422933], [-90.25028732301209, 38.57646685192612], [-90.25168306652759, 38.57630528914131], [-90.25422042600853, 38.57762432554723]]]}}]}
