{"type": "FeatureCollection", "features": [{"id": "0", "type": "Feature", "properties": {"school": "Roosevelt High School", "school_id": 423.0, "syear": 2026, "level": "high", "source_note": "Approximate proximity-clustered enclosing polygon derived from parcel-level SLPS Focus lookup assignments, not an official boundary."}, "geometry": {"type": "Polygon", "coordinates": [[[-90.30550219638509, 38.63868189283912], [-90.30409044150163, 38.64419753398131], [-90.30338514360317, 38.64417780325821], [-90.30284353155025, 38.64329654354547], [-90.30302669576271, 38.641050298187245], [-90.30426628416282, 38.63584265119245], [-90.29936889181344, 38.63203500228165], [-90.27083465072326, 38.629246715374414], [-90.26394355800228, 38.63296655555184], [-90.26579503255023, 38.63744661883718], [-90.26382271463822, 38.648733278387056], [-90.26269734404613, 38.64907606094684], [-90.24986531266084, 38.6434264449647], [-90.25301238568225, 38.63412265749275], [-90.26167777921374, 38.62652835902084], [-90.2526476132996, 38.61734050638755], [-90.24732826151396, 38.619664772435215], [-90.2448068922745, 38.61943805503901], [-90.23911794216552, 38.61693613116044], [-90.23484573843768, 38.61640229258396], [-90.22699603176662, 38.613578970887055], [-90.21326065196321, 38.611755341049644], [-90.20581577744359, 38.61239250781676], [-90.19533110366716, 38.6077388672529], [-90.19536916020449, 38.60433188061213], [-90.19882347528926, 38.597327175741476], [-90.2031040082393, 38.59185477164418], [-90.21068847973882, 38.58646198840915], [-90.21951683736287, 38.584561810359375], [-90.2222748242163, 38.58145184636483], [-90.22546926147997, 38.579413323240665], [-90.22835353638382, 38.57436728163148], [-90.23400702284087, 38.56913985445036], [-90.24068302205522, 38.56469144221627], [-90.24209584048147, 38.55971232259536], [-90.24649183299975, 38.5539176526999], [-90.25154425837282, 38.55088248155003], [-90.25334973714084, 38.54568311705081], [-90.25287070596654, 38.54374301560278], [-90.25755455684337, 38.53724351431097], [-90.26265219934166, 38.53471914500013], [-90.26512748752856, 38.53410591506516], [-90.26933202711328, 38.537222665442876], [-90.27064528953775, 38.539303365167434], [-90.2716783178679, 38.54445021840758], [-90.2765712645597, 38.55019556370604], [-90.28593730415656, 38.55472751391476], [-90.29695679033514, 38.562287054612206], [-90.30392289563942, 38.57140078027492], [-90.30997208529647, 38.57523425531221], [-90.31357660104358, 38.57871891221193], [-90.31978872031806, 38.59173242724595], [-90.31738988597336, 38.60263886312576], [-90.3127451966973, 38.614313996602085], [-90.30860399515431, 38.63041884716076], [-90.30550219638509, 38.63868189283912]]]}}, {"id": "1", "type": "Feature", "properties": {"school": "Sumner High School", "school_id": 425.0, "syear": 2026, "level": "high", "source_note": "Approximate proximity-clustered enclosing polygon derived from parcel-level SLPS Focus lookup assignments, not an official boundary."}, "geometry": {"type": "MultiPolygon", "coordinates": [[[[-90.29287459819675, 38.60214236037614], [-90.29308076997206, 38.602517666155826], [-90.29281708253099, 38.602489086276364], [-90.29287459819675, 38.60214236037614]]], [[[-90.29235339084701, 38.66702653982449], [-90.26608955727012, 38.700792423876834], [-90.2649875361085, 38.7003113740046], [-90.26401966166672, 38.69646567245887], [-90.25988102945931, 38.694550041586886], [-90.2569596276917, 38.68930733199308], [-90.24924423873439, 38.68704953421241], [-90.24476731094441, 38.68658504639194], [-90.23612309479222, 38.69101564081456], [-90.23253921594635, 38.68693688458363], [-90.23779384628696, 38.68403308344136], [-90.24046962742673, 38.68120213495773], [-90.23733763211341, 38.676301464104746], [-90.23545824980583, 38.67490913983457], [-90.23584512572812, 38.669357198133596], [-90.23054918256591, 38.66704399563704], [-90.2297875119533, 38.66532888071487], [-90.23686984536033, 38.65653345768419], [-90.23504481610478, 38.651234902646124], [-90.23021255881198, 38.649115371863395], [-90.22976044905673, 38.64310643700667], [-90.23444231124833, 38.63424190579269], [-90.23558673447656, 38.629845852489666], [-90.23722262857011, 38.630180548641384], [-90.24339205419572, 38.635241985191406], [-90.25182589688661, 38.636997444240755], [-90.2502799666973, 38.64156044042032], [-90.2535796569508, 38.645314704691145], [-90.25851055794952, 38.64748417781763], [-90.26476339105176, 38.6452332484683], [-90.26484918590397, 38.64471273971389], [-90.26701967901097, 38.64439590557261], [-90.27436289062707, 38.645700376215764], [-90.28059609039539, 38.647575997949005], [-90.30280833148886, 38.649703573213145], [-90.30183911171206, 38.6555512877895], [-90.30060284501793, 38.657363875164286], [-90.29739436539164, 38.66027441706004], [-90.29571329323397, 38.663750911487625], [-90.29235339084701, 38.66702653982449]]]]}}, {"id": "2", "type": "Feature", "properties": {"school": "Vashon High School", "school_id": 426.0, "syear": 2026, "level": "high", "source_note": "Approximate proximity-clustered enclosing polygon derived from parcel-level SLPS Focus lookup assignments, not an official boundary."}, "geometry": {"type": "MultiPolygon", "coordinates": [[[[-90.22883991977604, 38.57807920495979], [-90.22902561473683, 38.57723321021261], [-90.23229181728014, 38.57729146100695], [-90.23832469755921, 38.5783742827966], [-90.23381473516612, 38.57824954705975], [-90.2328112061217, 38.577594289338684], [-90.22900712388285, 38.57731745817762], [-90.22883991977604, 38.57807920495979]]], [[[-90.25824415413717, 38.5844570985496], [-90.2592449000827, 38.58419703876266], [-90.25905946727028, 38.583882459096976], [-90.25921386702481, 38.58396560629944], [-90.25956587832586, 38.5850232489915], [-90.26164683774898, 38.5853257159833], [-90.26095786954204, 38.5859184566112], [-90.25926814314091, 38.58500853884375], [-90.25772768125698, 38.58506306101966], [-90.25720825775495, 38.5856724690586], [-90.25824415413717, 38.5844570985496]]], [[[-90.31533837963809, 38.58552407917147], [-90.31632692305868, 38.58481863556674], [-90.31558640295158, 38.586704165342844], [-90.31509941532393, 38.5861618163978], [-90.31493710135338, 38.58581292478165], [-90.31484540886714, 38.5858789255322], [-90.31533837963809, 38.58552407917147]]], [[[-90.26095787455054, 38.58591845930828], [-90.26095785507884, 38.585918469054334], [-90.26095786954204, 38.5859184566112], [-90.26095787455054, 38.58591845930828]]], [[[-90.26015204368969, 38.586611733480716], [-90.25935931999204, 38.586830852341855], [-90.25936306321657, 38.587102829299916], [-90.25925125841093, 38.58677266185902], [-90.26095785507884, 38.585918469054334], [-90.26015204368969, 38.586611733480716]]], [[[-90.31558640659603, 38.5867041694016], [-90.31558640195391, 38.58670416788313], [-90.31558640295158, 38.586704165342844], [-90.31558640659603, 38.5867041694016]]], [[[-90.31599578513325, 38.587160086564964], [-90.31558640659603, 38.5867041694016], [-90.31742030014583, 38.587304049437904], [-90.31599578513325, 38.587160086564964]]], [[[-90.18597556158186, 38.7505422796031], [-90.18819333006921, 38.74871764235458], [-90.20325769937692, 38.73961120236986], [-90.2100468349496, 38.73357373124397], [-90.2141305058619, 38.7274527997128], [-90.21658727926702, 38.71797273558366], [-90.21581173138105, 38.70821707305322], [-90.21023331508123, 38.698941799578456], [-90.20764751349594, 38.69562771250589], [-90.19781043777601, 38.68632822249833], [-90.19126465017905, 38.67835640843157], [-90.18888569317889, 38.67367315865127], [-90.18542514915426, 38.66325025122787], [-90.181034762644, 38.6425807883979], [-90.18058822162996, 38.63540326769383], [-90.1824386880101, 38.62975155674777], [-90.18712427197477, 38.619507189402746], [-90.18775234622025, 38.61276105111984], [-90.18817570723871, 38.61183779862745], [-90.19362937743422, 38.607304867668354], [-90.1963452865621, 38.60723676339369], [-90.21282592160598, 38.60978069199112], [-90.22945645519654, 38.61405744326131], [-90.24925208864713, 38.61718978249271], [-90.25808351654995, 38.618016031668354], [-90.2651090107528, 38.62056407188817], [-90.26469129594881, 38.625790249770816], [-90.2606911104124, 38.630414995111735], [-90.25195344382776, 38.63661201679026], [-90.24863919938265, 38.635921479566406], [-90.23367976138064, 38.6423716394164], [-90.23835256767148, 38.65411065149171], [-90.23568898556223, 38.65785531017014], [-90.23920821049646, 38.67114819878346], [-90.24231983220595, 38.67840555917557], [-90.25221990827411, 38.68879271288426], [-90.25873279115106, 38.69201699679323], [-90.26116667604781, 38.694710676237484], [-90.26539146765336, 38.701555665361454], [-90.25166642463398, 38.71874102279279], [-90.23271314072761, 38.72628327597432], [-90.21798180131988, 38.73357598041782], [-90.20772967455498, 38.74039085638033], [-90.20247662676614, 38.74479748626379], [-90.19209328773573, 38.75523304355391], [-90.18502319056968, 38.764956019877], [-90.1841877728212, 38.774362902635474], [-90.17536578502329, 38.773306762944955], [-90.18340431869076, 38.753805586013705], [-90.18597556158186, 38.7505422796031]]]]}}]}
