{"type": "FeatureCollection", "features": [{"id": "0", "type": "Feature", "properties": {"FID": 1, "Id": 0, "event_id": "St Louis to Edwardsville", "stormdate": 1747353600000, "stormtime": "1939 UTC", "starttime": 1747353600000, "starttimez": "1939 UTC", "endtime": 1747353600000, "endtimez": "2006 UTC", "startlat": 38.644, "startlon": -90.3468, "endlat": 38.7971, "endlon": -89.9733, "length": 23.3031, "width": 1750, "injuries": 38, "fatalities": 5, "efscale": "EF3", "efnum": 3, "qc": "Y", "maxwind": 152, "cropdamage": 0, "propdamage": 0, "comments": " ", "wfo": "LSX", "image_full": " ", "Shape__Length": 48044.57729937823}, "geometry": {"type": "LineString", "coordinates": [[-90.3467875830805, 38.6439913400284], [-90.3309947361181, 38.6416449962197], [-90.3162318584135, 38.6410416383609], [-90.3002673497584, 38.6431868883643], [-90.2772728541589, 38.649536809776], [-90.2527252770499, 38.658786644588], [-90.2353874784494, 38.668303344224], [-90.2072350120861, 38.6846530289142], [-90.1529900169756, 38.7109119151528], [-90.1153961745937, 38.7229663370269], [-90.0942818259455, 38.7316710441834], [-90.0783173181896, 38.7363577549065], [-90.0053612318354, 38.7739741990501], [-89.9732605546308, 38.7971232170628]]}}]}
