{"type": "FeatureCollection", "features": [{"id": "0", "type": "Feature", "properties": {"OBJECTID": 1, "Id": 0, "efscale": "EF0", "qc": "Y", "event_id": " ", "stormdate": 1747353600000, "stormtime": "1939 UTC", "length": 0, "width": 0, "injuries": 0, "fatalities": 0, "comments": " ", "image_full": " ", "Shape__Area": 77020406.78515625, "Shape__Length": 97471.38563764628}, "geometry": {"type": "Polygon", "coordinates": [[[-90.3476071730326, 38.6439715891176], [-90.3443719204278, 38.6449469596345], [-90.3326989459995, 38.6444441846514], [-90.3109408671273, 38.6444777032834], [-90.3051902107596, 38.6470920927259], [-90.2993966387439, 38.6501756090172], [-90.2712441732799, 38.660095588041], [-90.2428342148271, 38.6790603690408], [-90.2109051993154, 38.6899142733251], [-90.1712514211162, 38.70947394057], [-90.1504803949542, 38.7177784826909], [-90.123701220335, 38.7251446083371], [-90.0965787223302, 38.7365271260261], [-90.0086617842139, 38.7809317393084], [-89.9942422289956, 38.792405710855], [-89.9742865938512, 38.7977908161932], [-89.972441233576, 38.7977908161932], [-89.9725270648721, 38.7966536225667], [-89.9978900329986, 38.7741736093246], [-90.0170731918743, 38.7596514999169], [-90.0756955516083, 38.7323392557521], [-90.1011014362822, 38.7256100038986], [-90.1142335310526, 38.7201189997921], [-90.1360345255729, 38.710709653128], [-90.155003108007, 38.7067915174147], [-90.1842713731253, 38.69111682698], [-90.2016520873739, 38.6830101896685], [-90.2195907005503, 38.6646161103452], [-90.2363276863736, 38.660159274431], [-90.2534079928845, 38.6514123459031], [-90.2662396808166, 38.6437034391624], [-90.2825475110587, 38.6401838802819], [-90.298941172597, 38.6400497976601], [-90.3053784739374, 38.6396475506939], [-90.3093266856779, 38.6394129058809], [-90.3176522629415, 38.6386084020561], [-90.3358054543582, 38.6400162781288], [-90.3453326598743, 38.6424967531227], [-90.3476071730326, 38.6439715891176]]]}}, {"id": "1", "type": "Feature", "properties": {"OBJECTID": 2, "Id": 0, "efscale": "EF1", "qc": "Y", "event_id": " ", "stormdate": 1747353600000, "stormtime": "1939 UTC", "length": 0, "width": 0, "injuries": 0, "fatalities": 0, "comments": " ", "image_full": " ", "Shape__Area": 49053830.92578125, "Shape__Length": 91401.41553939627}, "geometry": {"type": "Polygon", "coordinates": [[[-90.3457092968465, 38.6438840428144], [-90.3441428873843, 38.6443365438964], [-90.3389930446932, 38.6437667271528], [-90.3321265895704, 38.6431298677492], [-90.322706672275, 38.6424594843178], [-90.3106474597125, 38.6432304254438], [-90.2982878412109, 38.6495484802782], [-90.2697705954366, 38.6583123916037], [-90.259127590266, 38.6648134162063], [-90.2422189436493, 38.676976117354], [-90.2093887058241, 38.6887347809854], [-90.1697349276247, 38.7088640752169], [-90.1625680647643, 38.7119114441579], [-90.1341151915628, 38.7187759207722], [-90.1178073613206, 38.7240996221998], [-90.1002120697312, 38.7318668265928], [-90.0730037422289, 38.7410390759926], [-89.994382830803, 38.7843068221022], [-89.9918937412032, 38.7844406331288], [-89.9917649951584, 38.7829017851893], [-90.0000476567739, 38.7775155547991], [-90.0172996249777, 38.7598485431758], [-90.0787543976973, 38.7327037599706], [-90.0853204459818, 38.7302933673451], [-90.1090955459227, 38.7228942914385], [-90.1362609586763, 38.7136527402818], [-90.1563453398655, 38.7073905747153], [-90.1690482817527, 38.7000226198481], [-90.2023076742597, 38.6836429472643], [-90.2068137849282, 38.6810968946061], [-90.2123927796031, 38.6782157257752], [-90.2176284517916, 38.6705097040597], [-90.2202462883355, 38.6662877917482], [-90.229816410399, 38.6623337128306], [-90.2367686950192, 38.6609262756272], [-90.2680110655582, 38.644437098893], [-90.2825164520726, 38.6413868557188], [-90.2993821830413, 38.6408505360235], [-90.3096389500774, 38.6398114035734], [-90.3178357812963, 38.6388728207241], [-90.3356456484279, 38.6401801301089], [-90.3444432942226, 38.6424930029498], [-90.3444862089713, 38.6425600420124], [-90.3457092968465, 38.6438840428144]]]}}, {"id": "2", "type": "Feature", "properties": {"OBJECTID": 3, "Id": 0, "efscale": "EF2", "qc": "Y", "event_id": " ", "stormdate": 1747353600000, "stormtime": "1942 UTC", "length": 0, "width": 0, "injuries": 0, "fatalities": 0, "comments": " ", "image_full": " ", "Shape__Area": 287326.71875, "Shape__Length": 3222.1272892359093}, "geometry": {"type": "Polygon", "coordinates": [[[-90.2903751615844, 38.6483046261576], [-90.2898172617572, 38.6490419883971], [-90.2818993813513, 38.6497123097753], [-90.2767709982829, 38.6489749547304], [-90.2780155421835, 38.6475337389909], [-90.2832941300201, 38.6480532503573], [-90.290031839098, 38.6481705588243], [-90.2903751615844, 38.6483046261576]]]}}, {"id": "3", "type": "Feature", "properties": {"OBJECTID": 4, "Id": 0, "efscale": "EF2", "qc": "Y", "event_id": " ", "stormdate": 1747353600000, "stormtime": "1943 UTC", "length": 0, "width": 0, "injuries": 0, "fatalities": 0, "comments": " ", "image_full": " ", "Shape__Area": 4914898.015625, "Shape__Length": 13050.237059553103}, "geometry": {"type": "Polygon", "coordinates": [[[-90.2646152273109, 38.6549699362137], [-90.2630273591253, 38.6581201381339], [-90.2596799619606, 38.6611361576076], [-90.2541009672858, 38.6669667708998], [-90.2504531632828, 38.6684746111144], [-90.2441016923392, 38.6690442309066], [-90.2346603163205, 38.6729309290192], [-90.2307121045799, 38.6749077036277], [-90.221399474606, 38.6774204741756], [-90.2184383155758, 38.6786600736036], [-90.2176229245583, 38.6786600736036], [-90.2178804166479, 38.6777890055582], [-90.2204553366444, 38.676515886599], [-90.2249614491116, 38.6715907116421], [-90.2376214753507, 38.6640180153192], [-90.2457324752735, 38.6587568644378], [-90.2526418460443, 38.6584552570046], [-90.2628986130805, 38.6545677728845], [-90.2646152273109, 38.6549699362137]]]}}, {"id": "4", "type": "Feature", "properties": {"OBJECTID": 5, "Id": 0, "efscale": "EF3", "qc": "Y", "event_id": " ", "stormdate": 1747353600000, "stormtime": "1943 UTC", "length": 0, "width": 0, "injuries": 0, "fatalities": 0, "comments": " ", "image_full": " ", "Shape__Area": 14779.87109375, "Shape__Length": 705.6695909647469}, "geometry": {"type": "Polygon", "coordinates": [[[-90.2603236930839, 38.6593684501939], [-90.2599159971255, 38.6605748529471], [-90.2586499936023, 38.661169669045], [-90.2584032313241, 38.6610104926402], [-90.2585641632055, 38.6607507846211], [-90.2593688262103, 38.6603905431891], [-90.260109115743, 38.6594857397751], [-90.260109115743, 38.6594689854054], [-90.2603236930839, 38.6593684501939]]]}}, {"id": "5", "type": "Feature", "properties": {"OBJECTID": 6, "Id": 0, "efscale": "EF3", "qc": "Y", "event_id": " ", "stormdate": 1747353600000, "stormtime": "1944 UTC", "length": 0, "width": 0, "injuries": 0, "fatalities": 0, "comments": " ", "image_full": " ", "Shape__Area": 56449.1328125, "Shape__Length": 1185.922083618494}, "geometry": {"type": "Polygon", "coordinates": [[[-90.2405666831059, 38.6643698606806], [-90.2403521057651, 38.6648892497391], [-90.2390431883924, 38.6668997552196], [-90.2374553211062, 38.6673856175523], [-90.2377771857685, 38.6665311671797], [-90.2396225460436, 38.6644201246891], [-90.2405666831059, 38.6643698606806]]]}}]}
